{"type": "FeatureCollection", "features": [ {"type": "Feature", "properties": {"norad_id": 30447, "name": "FENGYUN 1C DEB", "group": "fengyun-1c-debris", "lat": -32.84157539519807, "lon": 30.02527385562553, "alt_km": 748.854278638606, "timestamp": "2025-12-19T18:58:41.864476+00:00", "meta": {"OBJECT_NAME": "FENGYUN 1C DEB", "OBJECT_ID": "1999-025AFJ", "EPOCH": "2025-12-18T14:13:23.807424", "MEAN_MOTION": 14.56711749, "ECCENTRICITY": 0.00601421, "INCLINATION": 98.9722, "RA_OF_ASC_NODE": 214.5897, "ARG_OF_PERICENTER": 13.293, "MEAN_ANOMALY": 40.604, "EPHEMERIS_TYPE": 0, "CLASSIFICATION_TYPE": "U", "NORAD_CAT_ID": 30447, "ELEMENT_SET_NO": 999, "REV_AT_EPOCH": 98181, "BSTAR": 0.0018851467, "MEAN_MOTION_DOT": 8.586e-05, "MEAN_MOTION_DDOT": 0}, "tle": {"line1": "1 30447U 99025AFJ 25352.59263666  .00008586  00000+0  18851-2 0  9994", "line2": "2 30447  98.9722 214.5897 0060142  13.2930  40.6040 14.56711749981810"}}, "geometry": {"type": "Point", "coordinates": [30.02527385562553, -32.84157539519807]}}, {"type": "Feature", "properties": {"norad_id": 30448, "name": "FENGYUN 1C DEB", "group": "fengyun-1c-debris", "lat": 68.6186831809467, "lon": -71.05487489230958, "alt_km": 773.6969547299377, "timestamp": "2025-12-19T18:58:41.864487+00:00", "meta": {"OBJECT_NAME": "FENGYUN 1C DEB", "OBJECT_ID": "1999-025AFK", "EPOCH": "2025-12-19T05:20:04.027776", "MEAN_MOTION": 14.35195047, "ECCENTRICITY": 0.00168719, "INCLINATION": 98.8313, "RA_OF_ASC_NODE": 84.9674, "ARG_OF_PERICENTER": 351.3283, "MEAN_ANOMALY": 62.448, "EPHEMERIS_TYPE": 0, "CLASSIFICATION_TYPE": "U", "NORAD_CAT_ID": 30448, "ELEMENT_SET_NO": 999, "REV_AT_EPOCH": 97431, "BSTAR": 0.0013236308, "MEAN_MOTION_DOT": 3.746e-05, "MEAN_MOTION_DDOT": 0}, "tle": {"line1": "1 30448U 99025AFK 25353.22226884  .00003746  00000+0  13236-2 0  9992", "line2": "2 30448  98.8313  84.9674 0016871 351.3283  62.4480 14.35195047974316"}}, "geometry": {"type": "Point", "coordinates": [-71.05487489230958, 68.6186831809467]}}, {"type": "Feature", "properties": {"norad_id": 30450, "name": "FENGYUN 1C DEB", "group": "fengyun-1c-debris", "lat": -9.062444525894072, "lon": -173.6270147205766, "alt_km": 557.6933043524577, "timestamp": "2025-12-19T18:58:41.864497+00:00", "meta": {"OBJECT_NAME": "FENGYUN 1C DEB", "OBJECT_ID": "1999-025AFM", "EPOCH": "2025-12-19T00:10:58.182240", "MEAN_MOTION": 14.61824117, "ECCENTRICITY": 0.01894102, "INCLINATION": 98.0798, "RA_OF_ASC_NODE": 6.9054, "ARG_OF_PERICENTER": 188.5402, "MEAN_ANOMALY": 201.4849, "EPHEMERIS_TYPE": 0, "CLASSIFICATION_TYPE": "U", "NORAD_CAT_ID": 30450, "ELEMENT_SET_NO": 999, "REV_AT_EPOCH": 99634, "BSTAR": 0.00040329612, "MEAN_MOTION_DOT": 2.547e-05, "MEAN_MOTION_DDOT": 0}, "tle": {"line1": "1 30450U 99025AFM 25353.00761785  .00002547  00000+0  40330-3 0  9999", "line2": "2 30450  98.0798   6.9054 0189410 188.5402 201.4849 14.61824117996344"}}, "geometry": {"type": "Point", "coordinates": [-173.6270147205766, -9.062444525894072]}}, {"type": "Feature", "properties": {"norad_id": 30452, "name": "FENGYUN 1C DEB", "group": "fengyun-1c-debris", "lat": 79.15672107207725, "lon": 74.3670927773185, "alt_km": 699.5119791726775, "timestamp": "2025-12-19T18:58:41.864508+00:00", "meta": {"OBJECT_NAME": "FENGYUN 1C DEB", "OBJECT_ID": "1999-025AFP", "EPOCH": "2025-12-18T23:29:38.774400", "MEAN_MOTION": 14.64791923, "ECCENTRICITY": 0.00494909, "INCLINATION": 99.3217, "RA_OF_ASC_NODE": 132.4888, "ARG_OF_PERICENTER": 233.9755, "MEAN_ANOMALY": 252.177, "EPHEMERIS_TYPE": 0, "CLASSIFICATION_TYPE": "U", "NORAD_CAT_ID": 30452, "ELEMENT_SET_NO": 999, "REV_AT_EPOCH": 98198, "BSTAR": 0.0029579238, "MEAN_MOTION_DOT": 0.00016035, "MEAN_MOTION_DDOT": 0}, "tle": {"line1": "1 30452U 99025AFP 25352.97892100  .00016035  00000+0  29579-2 0  9990", "line2": "2 30452  99.3217 132.4888 0049490 233.9755 252.1770 14.64791923981986"}}, "geometry": {"type": "Point", "coordinates": [74.3670927773185, 79.15672107207725]}}, {"type": "Feature", "properties": {"norad_id": 30453, "name": "FENGYUN 1C DEB", "group": "fengyun-1c-debris", "lat": -35.402141208302666, "lon": -120.79485912622104, "alt_km": 733.170041556541, "timestamp": "2025-12-19T18:58:41.864518+00:00", "meta": {"OBJECT_NAME": "FENGYUN 1C DEB", "OBJECT_ID": "1999-025AFQ", "EPOCH": "2025-12-19T04:36:21.876768", "MEAN_MOTION": 14.2480134, "ECCENTRICITY": 0.01160019, "INCLINATION": 98.8133, "RA_OF_ASC_NODE": 64.9346, "ARG_OF_PERICENTER": 207.7536, "MEAN_ANOMALY": 177.9082, "EPHEMERIS_TYPE": 0, "CLASSIFICATION_TYPE": "U", "NORAD_CAT_ID": 30453, "ELEMENT_SET_NO": 999, "REV_AT_EPOCH": 97326, "BSTAR": 0.0011562308, "MEAN_MOTION_DOT": 2.847e-05, "MEAN_MOTION_DDOT": 0}, "tle": {"line1": "1 30453U 99025AFQ 25353.19191987  .00002847  00000+0  11562-2 0  9990", "line2": "2 30453  98.8133  64.9346 0116001 207.7536 177.9082 14.24801340973268"}}, "geometry": {"type": "Point", "coordinates": [-120.79485912622104, -35.402141208302666]}}, {"type": "Feature", "properties": {"norad_id": 30454, "name": "FENGYUN 1C DEB", "group": "fengyun-1c-debris", "lat": -21.146057737661973, "lon": -33.41388673559396, "alt_km": 964.8883386915868, "timestamp": "2025-12-19T18:58:41.864528+00:00", "meta": {"OBJECT_NAME": "FENGYUN 1C DEB", "OBJECT_ID": "1999-025AFR", "EPOCH": "2025-12-19T03:53:38.318784", "MEAN_MOTION": 14.15430935, "ECCENTRICITY": 0.01711894, "INCLINATION": 98.1332, "RA_OF_ASC_NODE": 322.8415, "ARG_OF_PERICENTER": 176.2823, "MEAN_ANOMALY": 201.1223, "EPHEMERIS_TYPE": 0, "CLASSIFICATION_TYPE": "U", "NORAD_CAT_ID": 30454, "ELEMENT_SET_NO": 999, "REV_AT_EPOCH": 96051, "BSTAR": 0.0012734754, "MEAN_MOTION_DOT": 2.827e-05, "MEAN_MOTION_DDOT": 0}, "tle": {"line1": "1 30454U 99025AFR 25353.16224906  .00002827  00000+0  12735-2 0  9997", "line2": "2 30454  98.1332 322.8415 0171189 176.2823 201.1223 14.15430935960512"}}, "geometry": {"type": "Point", "coordinates": [-33.41388673559396, -21.146057737661973]}}, {"type": "Feature", "properties": {"norad_id": 30462, "name": "FENGYUN 1C DEB", "group": "fengyun-1c-debris", "lat": -26.562096806437783, "lon": 157.40279646555464, "alt_km": 785.1746015404788, "timestamp": "2025-12-19T18:58:41.864538+00:00", "meta": {"OBJECT_NAME": "FENGYUN 1C DEB", "OBJECT_ID": "1999-025AFZ", "EPOCH": "2025-12-19T06:06:52.454592", "MEAN_MOTION": 14.06270412, "ECCENTRICITY": 0.01389361, "INCLINATION": 98.817, "RA_OF_ASC_NODE": 341.331, "ARG_OF_PERICENTER": 231.7941, "MEAN_ANOMALY": 143.6536, "EPHEMERIS_TYPE": 0, "CLASSIFICATION_TYPE": "U", "NORAD_CAT_ID": 30462, "ELEMENT_SET_NO": 999, "REV_AT_EPOCH": 96885, "BSTAR": 0.00026227571, "MEAN_MOTION_DOT": 4.28e-06, "MEAN_MOTION_DDOT": 0}, "tle": {"line1": "1 30462U 99025AFZ 25353.25477378  .00000428  00000+0  26228-3 0  9997", "line2": "2 30462  98.8170 341.3310 0138936 231.7941 143.6536 14.06270412968853"}}, "geometry": {"type": "Point", "coordinates": [157.40279646555464, -26.562096806437783]}}, {"type": "Feature", "properties": {"norad_id": 30464, "name": "FENGYUN 1C DEB", "group": "fengyun-1c-debris", "lat": 1.2474837610221008, "lon": 43.778488086047716, "alt_km": 903.2372815845101, "timestamp": "2025-12-19T18:58:41.864549+00:00", "meta": {"OBJECT_NAME": "FENGYUN 1C DEB", "OBJECT_ID": "1999-025AGB", "EPOCH": "2025-12-18T09:13:02.281152", "MEAN_MOTION": 14.10247684, "ECCENTRICITY": 0.01084183, "INCLINATION": 98.8364, "RA_OF_ASC_NODE": 42.5904, "ARG_OF_PERICENTER": 242.4836, "MEAN_ANOMALY": 180.1142, "EPHEMERIS_TYPE": 0, "CLASSIFICATION_TYPE": "U", "NORAD_CAT_ID": 30464, "ELEMENT_SET_NO": 999, "REV_AT_EPOCH": 97143, "BSTAR": 0.00010546652, "MEAN_MOTION_DOT": 1.53e-06, "MEAN_MOTION_DDOT": 0}, "tle": {"line1": "1 30464U 99025AGB 25352.38405418  .00000153  00000+0  10547-3 0  9990", "line2": "2 30464  98.8364  42.5904 0108418 242.4836 180.1142 14.10247684971430"}}, "geometry": {"type": "Point", "coordinates": [43.778488086047716, 1.2474837610221008]}}, {"type": "Feature", "properties": {"norad_id": 30465, "name": "FENGYUN 1C DEB", "group": "fengyun-1c-debris", "lat": 80.38956030278696, "lon": 15.515969632994066, "alt_km": 768.5437735995201, "timestamp": "2025-12-19T18:58:41.864559+00:00", "meta": {"OBJECT_NAME": "FENGYUN 1C DEB", "OBJECT_ID": "1999-025AGC", "EPOCH": "2025-12-19T05:26:05.872704", "MEAN_MOTION": 14.33936425, "ECCENTRICITY": 0.00164165, "INCLINATION": 98.8297, "RA_OF_ASC_NODE": 81.5748, "ARG_OF_PERICENTER": 10.6221, "MEAN_ANOMALY": 44.0167, "EPHEMERIS_TYPE": 0, "CLASSIFICATION_TYPE": "U", "NORAD_CAT_ID": 30465, "ELEMENT_SET_NO": 999, "REV_AT_EPOCH": 97451, "BSTAR": 0.001292038, "MEAN_MOTION_DOT": 3.563e-05, "MEAN_MOTION_DDOT": 0}, "tle": {"line1": "1 30465U 99025AGC 25353.22645686  .00003563  00000+0  12920-2 0  9992", "line2": "2 30465  98.8297  81.5748 0016416  10.6221  44.0167 14.33936425974514"}}, "geometry": {"type": "Point", "coordinates": [15.515969632994066, 80.38956030278696]}}, {"type": "Feature", "properties": {"norad_id": 30466, "name": "FENGYUN 1C DEB", "group": "fengyun-1c-debris", "lat": 76.07740737465946, "lon": -108.39854710254703, "alt_km": 818.823223189891, "timestamp": "2025-12-19T18:58:41.864569+00:00", "meta": {"OBJECT_NAME": "FENGYUN 1C DEB", "OBJECT_ID": "1999-025AGD", "EPOCH": "2025-12-19T01:46:05.000736", "MEAN_MOTION": 14.22563753, "ECCENTRICITY": 0.01161868, "INCLINATION": 98.6547, "RA_OF_ASC_NODE": 32.9876, "ARG_OF_PERICENTER": 5.9123, "MEAN_ANOMALY": 23.3631, "EPHEMERIS_TYPE": 0, "CLASSIFICATION_TYPE": "U", "NORAD_CAT_ID": 30466, "ELEMENT_SET_NO": 999, "REV_AT_EPOCH": 97441, "BSTAR": 0.00089766428, "MEAN_MOTION_DOT": 2.105e-05, "MEAN_MOTION_DDOT": 0}, "tle": {"line1": "1 30466U 99025AGD 25353.07366899  .00002105  00000+0  89766-3 0  9996", "line2": "2 30466  98.6547  32.9876 0116186   5.9123  23.3631 14.22563753974419"}}, "geometry": {"type": "Point", "coordinates": [-108.39854710254703, 76.07740737465946]}}]}